CCSDS_OMM_VERS = 2.0
CREATION_DATE  = 
ORIGINATOR     = 

OBJECT_NAME    = STARLINK-35846
OBJECT_ID      = 2025-254V
CENTER_NAME    = EARTH
REF_FRAME      = TEME
TIME_SYSTEM    = UTC
MEAN_ELEMENT_THEORY = SGP/SGP4

EPOCH          = 2025-12-05T06:00:02.000160
MEAN_MOTION    = 15.55247615
ECCENTRICITY   = .00015418
INCLINATION    = 53.1595
RA_OF_ASC_NODE = 312.3661
ARG_OF_PERICENTER = 95.0837
MEAN_ANOMALY   = 96.7420

EPHEMERIS_TYPE = 0
CLASSIFICATION_TYPE = U
NORAD_CAT_ID   = 66367
ELEMENT_SET_NO = 999
REV_AT_EPOCH   = 567
BSTAR          = -.34138764E-1
MEAN_MOTION_DOT = -.2093192E-1
MEAN_MOTION_DDOT = 0

CCSDS_OMM_VERS = 2.0
CREATION_DATE  = 
ORIGINATOR     = 

OBJECT_NAME    = STARLINK-34861
OBJECT_ID      = 2025-254W
CENTER_NAME    = EARTH
REF_FRAME      = TEME
TIME_SYSTEM    = UTC
MEAN_ELEMENT_THEORY = SGP/SGP4

EPOCH          = 2025-12-04T19:24:47.965536
MEAN_MOTION    = 15.74136334
ECCENTRICITY   = .00008152
INCLINATION    = 53.1575
RA_OF_ASC_NODE = 314.2484
ARG_OF_PERICENTER = 42.9884
MEAN_ANOMALY   = 317.1200

EPHEMERIS_TYPE = 0
CLASSIFICATION_TYPE = U
NORAD_CAT_ID   = 66368
ELEMENT_SET_NO = 999
REV_AT_EPOCH   = 443
BSTAR          = .865279E-3
MEAN_MOTION_DOT = .127738E-2
MEAN_MOTION_DDOT = 0

CCSDS_OMM_VERS = 2.0
CREATION_DATE  = 
ORIGINATOR     = 

OBJECT_NAME    = STARLINK-35795
OBJECT_ID      = 2025-254X
CENTER_NAME    = EARTH
REF_FRAME      = TEME
TIME_SYSTEM    = UTC
MEAN_ELEMENT_THEORY = SGP/SGP4

EPOCH          = 2025-12-04T02:39:36.815328
MEAN_MOTION    = 15.74349696
ECCENTRICITY   = .00030446
INCLINATION    = 53.1567
RA_OF_ASC_NODE = 317.7168
ARG_OF_PERICENTER = 147.1731
MEAN_ANOMALY   = 212.9479

EPHEMERIS_TYPE = 0
CLASSIFICATION_TYPE = U
NORAD_CAT_ID   = 66369
ELEMENT_SET_NO = 999
REV_AT_EPOCH   = 432
BSTAR          = .21458163E-2
MEAN_MOTION_DOT = .328479E-2
MEAN_MOTION_DDOT = 0

CCSDS_OMM_VERS = 2.0
CREATION_DATE  = 
ORIGINATOR     = 

OBJECT_NAME    = STARLINK-35824
OBJECT_ID      = 2025-254Y
CENTER_NAME    = EARTH
REF_FRAME      = TEME
TIME_SYSTEM    = UTC
MEAN_ELEMENT_THEORY = SGP/SGP4

EPOCH          = 2025-12-05T07:35:12.725664
MEAN_MOTION    = 15.74416564
ECCENTRICITY   = .00002907
INCLINATION    = 53.1572
RA_OF_ASC_NODE = 311.7243
ARG_OF_PERICENTER = 144.1395
MEAN_ANOMALY   = 215.9645

EPHEMERIS_TYPE = 0
CLASSIFICATION_TYPE = U
NORAD_CAT_ID   = 66370
ELEMENT_SET_NO = 999
REV_AT_EPOCH   = 451
BSTAR          = -.27617074E-2
MEAN_MOTION_DOT = -.390695E-2
MEAN_MOTION_DDOT = 0

CCSDS_OMM_VERS = 2.0
CREATION_DATE  = 
ORIGINATOR     = 

OBJECT_NAME    = STARLINK-35804
OBJECT_ID      = 2025-254Z
CENTER_NAME    = EARTH
REF_FRAME      = TEME
TIME_SYSTEM    = UTC
MEAN_ELEMENT_THEORY = SGP/SGP4

EPOCH          = 2025-12-05T00:00:02.999808
MEAN_MOTION    = 15.74124594
ECCENTRICITY   = .00011956
INCLINATION    = 53.1580
RA_OF_ASC_NODE = 313.2878
ARG_OF_PERICENTER = 90.6735
MEAN_ANOMALY   = 278.9415

EPHEMERIS_TYPE = 0
CLASSIFICATION_TYPE = U
NORAD_CAT_ID   = 66371
ELEMENT_SET_NO = 999
REV_AT_EPOCH   = 567
BSTAR          = .10837698E-2
MEAN_MOTION_DOT = .160705E-2
MEAN_MOTION_DDOT = 0

CCSDS_OMM_VERS = 2.0
CREATION_DATE  = 
ORIGINATOR     = 

OBJECT_NAME    = STARLINK-35821
OBJECT_ID      = 2025-254AA
CENTER_NAME    = EARTH
REF_FRAME      = TEME
TIME_SYSTEM    = UTC
MEAN_ELEMENT_THEORY = SGP/SGP4

EPOCH          = 2025-12-04T10:15:15.064416
MEAN_MOTION    = 15.74415610
ECCENTRICITY   = .0001567
INCLINATION    = 53.1569
RA_OF_ASC_NODE = 316.1358
ARG_OF_PERICENTER = 64.6576
MEAN_ANOMALY   = 295.4606

EPHEMERIS_TYPE = 0
CLASSIFICATION_TYPE = U
NORAD_CAT_ID   = 66372
ELEMENT_SET_NO = 999
REV_AT_EPOCH   = 437
BSTAR          = .30875E-2
MEAN_MOTION_DOT = .483155E-2
MEAN_MOTION_DDOT = 0

CCSDS_OMM_VERS = 2.0
CREATION_DATE  = 
ORIGINATOR     = 

OBJECT_NAME    = STARLINK-35809
OBJECT_ID      = 2025-254AB
CENTER_NAME    = EARTH
REF_FRAME      = TEME
TIME_SYSTEM    = UTC
MEAN_ELEMENT_THEORY = SGP/SGP4

EPOCH          = 2025-12-04T23:57:08.527104
MEAN_MOTION    = 15.74162628
ECCENTRICITY   = .00011507
INCLINATION    = 53.1573
RA_OF_ASC_NODE = 313.2930
ARG_OF_PERICENTER = 93.3239
MEAN_ANOMALY   = 266.7912

EPHEMERIS_TYPE = 0
CLASSIFICATION_TYPE = U
NORAD_CAT_ID   = 66373
ELEMENT_SET_NO = 999
REV_AT_EPOCH   = 446
BSTAR          = .17555622E-2
MEAN_MOTION_DOT = .264408E-2
MEAN_MOTION_DDOT = 0

CCSDS_OMM_VERS = 2.0
CREATION_DATE  = 
ORIGINATOR     = 

OBJECT_NAME    = STARLINK-35831
OBJECT_ID      = 2025-254AC
CENTER_NAME    = EARTH
REF_FRAME      = TEME
TIME_SYSTEM    = UTC
MEAN_ELEMENT_THEORY = SGP/SGP4

EPOCH          = 2025-12-05T04:30:56.234304
MEAN_MOTION    = 15.74184186
ECCENTRICITY   = .00009866
INCLINATION    = 53.1576
RA_OF_ASC_NODE = 312.3471
ARG_OF_PERICENTER = 94.6782
MEAN_ANOMALY   = 265.4351

EPHEMERIS_TYPE = 0
CLASSIFICATION_TYPE = U
NORAD_CAT_ID   = 66374
ELEMENT_SET_NO = 999
REV_AT_EPOCH   = 449
BSTAR          = .22573018E-2
MEAN_MOTION_DOT = .343742E-2
MEAN_MOTION_DDOT = 0

CCSDS_OMM_VERS = 2.0
CREATION_DATE  = 
ORIGINATOR     = 

OBJECT_NAME    = STARLINK-35826
OBJECT_ID      = 2025-254AD
CENTER_NAME    = EARTH
REF_FRAME      = TEME
TIME_SYSTEM    = UTC
MEAN_ELEMENT_THEORY = SGP/SGP4

EPOCH          = 2025-12-05T01:27:35.768160
MEAN_MOTION    = 15.74369654
ECCENTRICITY   = .00027637
INCLINATION    = 53.1573
RA_OF_ASC_NODE = 312.9744
ARG_OF_PERICENTER = 186.5703
MEAN_ANOMALY   = 173.5282

EPHEMERIS_TYPE = 0
CLASSIFICATION_TYPE = U
NORAD_CAT_ID   = 66375
ELEMENT_SET_NO = 999
REV_AT_EPOCH   = 447
BSTAR          = .2728124E-2
MEAN_MOTION_DOT = .422905E-2
MEAN_MOTION_DDOT = 0

CCSDS_OMM_VERS = 2.0
CREATION_DATE  = 
ORIGINATOR     = 

OBJECT_NAME    = SHIYAN-32 01
OBJECT_ID      = 2025-255A
CENTER_NAME    = EARTH
REF_FRAME      = TEME
TIME_SYSTEM    = UTC
MEAN_ELEMENT_THEORY = SGP/SGP4

EPOCH          = 2025-12-05T18:08:58.191648
MEAN_MOTION    = 15.42436726
ECCENTRICITY   = .0013509
INCLINATION    = 52.9952
RA_OF_ASC_NODE = 211.2776
ARG_OF_PERICENTER = 20.5460
MEAN_ANOMALY   = 339.6085

EPHEMERIS_TYPE = 0
CLASSIFICATION_TYPE = U
NORAD_CAT_ID   = 66376
ELEMENT_SET_NO = 999
REV_AT_EPOCH   = 427
BSTAR          = .61221E-3
MEAN_MOTION_DOT = .2665E-3
MEAN_MOTION_DDOT = 0

CCSDS_OMM_VERS = 2.0
CREATION_DATE  = 
ORIGINATOR     = 

OBJECT_NAME    = CZ-11 DEB
OBJECT_ID      = 2025-255B
CENTER_NAME    = EARTH
REF_FRAME      = TEME
TIME_SYSTEM    = UTC
MEAN_ELEMENT_THEORY = SGP/SGP4

EPOCH          = 2025-12-05T03:49:57.444960
MEAN_MOTION    = 15.43766179
ECCENTRICITY   = .00138166
INCLINATION    = 52.9949
RA_OF_ASC_NODE = 213.9635
ARG_OF_PERICENTER = 16.3255
MEAN_ANOMALY   = 343.8192

EPHEMERIS_TYPE = 0
CLASSIFICATION_TYPE = U
NORAD_CAT_ID   = 66377
ELEMENT_SET_NO = 999
REV_AT_EPOCH   = 404
BSTAR          = .13050272E-2
MEAN_MOTION_DOT = .60195E-3
MEAN_MOTION_DDOT = 0

CCSDS_OMM_VERS = 2.0
CREATION_DATE  = 
ORIGINATOR     = 

OBJECT_NAME    = SHIYAN-32 02
OBJECT_ID      = 2025-255C
CENTER_NAME    = EARTH
REF_FRAME      = TEME
TIME_SYSTEM    = UTC
MEAN_ELEMENT_THEORY = SGP/SGP4

EPOCH          = 2025-12-05T17:40:19.394112
MEAN_MOTION    = 15.44450072
ECCENTRICITY   = .0012207
INCLINATION    = 52.9929
RA_OF_ASC_NODE = 211.1536
ARG_OF_PERICENTER = 14.4220
MEAN_ANOMALY   = 345.7131

EPHEMERIS_TYPE = 0
CLASSIFICATION_TYPE = U
NORAD_CAT_ID   = 66378
ELEMENT_SET_NO = 999
REV_AT_EPOCH   = 413
BSTAR          = .14477E-2
MEAN_MOTION_DOT = .68417E-3
MEAN_MOTION_DDOT = 0

