STARLINK-35846          
1 66367U 25254V   25339.25002315 -.02093192  00000+0 -34139-1 0  9994
2 66367  53.1595 312.3661 0001541  95.0837  96.7420 15.55247615  5670
STARLINK-34861          
1 66368U 25254W   25338.80888849  .00127738  00000+0  86528-3 0  9990
2 66368  53.1575 314.2484 0000815  42.9884 317.1200 15.74136334  4434
STARLINK-35795          
1 66369U 25254X   25338.11084277  .00328479  00000+0  21458-2 0  9993
2 66369  53.1567 317.7168 0003044 147.1731 212.9479 15.74349696  4324
STARLINK-35824          
1 66370U 25254Y   25339.31611951 -.00390695  00000+0 -27617-2 0  9997
2 66370  53.1572 311.7243 0000290 144.1395 215.9645 15.74416564  4511
STARLINK-35804          
1 66371U 25254Z   25339.00003472  .00160705  00000+0  10838-2 0  9999
2 66371  53.1580 313.2878 0001195  90.6735 278.9415 15.74124594  5671
STARLINK-35821          
1 66372U 25254AA  25338.42725769  .00483155  00000+0  30875-2 0  9995
2 66372  53.1569 316.1358 0001567  64.6576 295.4606 15.74415610  4375
STARLINK-35809          
1 66373U 25254AB  25338.99801536  .00264408  00000+0  17556-2 0  9994
2 66373  53.1573 313.2930 0001150  93.3239 266.7912 15.74162628  4467
STARLINK-35831          
1 66374U 25254AC  25339.18815086  .00343742  00000+0  22573-2 0  9996
2 66374  53.1576 312.3471 0000986  94.6782 265.4351 15.74184186  4493
STARLINK-35826          
1 66375U 25254AD  25339.06083065  .00422905  00000+0  27281-2 0  9998
2 66375  53.1573 312.9744 0002763 186.5703 173.5282 15.74369654  4474
SHIYAN-32 01            
1 66376U 25255A   25339.75622907  .00026650  00000+0  61221-3 0  9990
2 66376  52.9952 211.2776 0013509  20.5460 339.6085 15.42436726  4270
CZ-11 DEB               
1 66377U 25255B   25339.15969265  .00060195  00000+0  13050-2 0  9994
2 66377  52.9949 213.9635 0013816  16.3255 343.8192 15.43766179  4046
SHIYAN-32 02            
1 66378U 25255C   25339.73633558  .00068417  00000+0  14477-2 0  9991
2 66378  52.9929 211.1536 0012207  14.4220 345.7131 15.44450072  4136
